[{"OBJECT_NAME":"HJ-2F","OBJECT_ID":"2023-116A","EPOCH":"2026-03-09T22:49:19.583040","MEAN_MOTION":15.20784398,"ECCENTRICITY":0.00100751,"INCLINATION":97.3886,"RA_OF_ASC_NODE":75.9939,"ARG_OF_PERICENTER":41.1134,"MEAN_ANOMALY":319.0859,"EPHEMERIS_TYPE":0,"CLASSIFICATION_TYPE":"U","NORAD_CAT_ID":57519,"ELEMENT_SET_NO":999,"REV_AT_EPOCH":14366,"BSTAR":0.00048860697,"MEAN_MOTION_DOT":0.00010719,"MEAN_MOTION_DDOT":0},{"OBJECT_NAME":"OBJECT D","OBJECT_ID":"2024-105D","EPOCH":"2026-03-10T00:24:43.734240","MEAN_MOTION":15.21426907,"ECCENTRICITY":0.00113854,"INCLINATION":97.5907,"RA_OF_ASC_NODE":87.0934,"ARG_OF_PERICENTER":197.271,"MEAN_ANOMALY":162.8139,"EPHEMERIS_TYPE":0,"CLASSIFICATION_TYPE":"U","NORAD_CAT_ID":59920,"ELEMENT_SET_NO":999,"REV_AT_EPOCH":9817,"BSTAR":0.0003392179,"MEAN_MOTION_DOT":7.559e-5,"MEAN_MOTION_DDOT":0}]
